[Satellite]
VERSION=1.1
NAME=DIWATA-1
NICKNAME=DIWATA-1
TLE1=1 41463U 98067HT  20097.47294285  .06230670  12834-4  30325-4 0  9990
TLE2=2 41463  51.6144 141.1724 0000010 296.9794 187.6526 16.55522519226431
STATUS=0
